{"type": "FeatureCollection", "features": [{"type": "Feature", "properties": {"norad_id": 24946, "name": "IRIDIUM 33", "group": "iridium-33-debris", "lat": -77.10614434554995, "lon": -92.22257952968981, "alt_km": 778.389340690761, "timestamp": "2025-12-04T07:39:36.516815+00:00", "meta": {"OBJECT_NAME": "IRIDIUM 33", "OBJECT_ID": "1997-051C", "EPOCH": "2025-12-03T18:44:55.101120", "MEAN_MOTION": 14.35026626, "ECCENTRICITY": 0.00061595, "INCLINATION": 86.3871, "RA_OF_ASC_NODE": 71.9815, "ARG_OF_PERICENTER": 234.9647, "MEAN_ANOMALY": 125.0972, "EPHEMERIS_TYPE": 0, "CLASSIFICATION_TYPE": "U", "NORAD_CAT_ID": 24946, "ELEMENT_SET_NO": 999, "REV_AT_EPOCH": 47706, "BSTAR": 0.00019630892, "MEAN_MOTION_DOT": 5.79e-06, "MEAN_MOTION_DDOT": 0}, "tle": {"line1": "1 24946U 97051C   25337.78119330  .00000579  00000+0  19631-3 0  9992", "line2": "2 24946  86.3871  71.9815 0006159 234.9647 125.0972 14.35026626477062"}}, "geometry": {"type": "Point", "coordinates": [-92.22257952968981, -77.10614434554995]}}, {"type": "Feature", "properties": {"norad_id": 33773, "name": "IRIDIUM 33 DEB", "group": "iridium-33-debris", "lat": -33.929804561819665, "lon": 61.73085257106942, "alt_km": 761.5182630223826, "timestamp": "2025-12-04T07:39:36.516858+00:00", "meta": {"OBJECT_NAME": "IRIDIUM 33 DEB", "OBJECT_ID": "1997-051L", "EPOCH": "2025-12-03T18:30:20.533536", "MEAN_MOTION": 14.43223741, "ECCENTRICITY": 0.00115344, "INCLINATION": 86.4015, "RA_OF_ASC_NODE": 64.3893, "ARG_OF_PERICENTER": 174.0579, "MEAN_ANOMALY": 186.0761, "EPHEMERIS_TYPE": 0, "CLASSIFICATION_TYPE": "U", "NORAD_CAT_ID": 33773, "ELEMENT_SET_NO": 999, "REV_AT_EPOCH": 88218, "BSTAR": 0.00052399114, "MEAN_MOTION_DOT": 1.782e-05, "MEAN_MOTION_DDOT": 0}, "tle": {"line1": "1 33773U 97051L   25337.77107099  .00001782  00000+0  52399-3 0  9993", "line2": "2 33773  86.4015  64.3893 0011534 174.0579 186.0761 14.43223741882186"}}, "geometry": {"type": "Point", "coordinates": [61.73085257106942, -33.929804561819665]}}, {"type": "Feature", "properties": {"norad_id": 33775, "name": "IRIDIUM 33 DEB", "group": "iridium-33-debris", "lat": 75.98154841459484, "lon": -141.60570709048875, "alt_km": 744.6407943149743, "timestamp": "2025-12-04T07:39:36.516873+00:00", "meta": {"OBJECT_NAME": "IRIDIUM 33 DEB", "OBJECT_ID": "1997-051N", "EPOCH": "2025-12-03T16:45:09.010080", "MEAN_MOTION": 14.4143539, "ECCENTRICITY": 0.00132542, "INCLINATION": 86.3643, "RA_OF_ASC_NODE": 53.4129, "ARG_OF_PERICENTER": 183.3567, "MEAN_ANOMALY": 299.1013, "EPHEMERIS_TYPE": 0, "CLASSIFICATION_TYPE": "U", "NORAD_CAT_ID": 33775, "ELEMENT_SET_NO": 999, "REV_AT_EPOCH": 88010, "BSTAR": 0.00052280785, "MEAN_MOTION_DOT": 1.716e-05, "MEAN_MOTION_DDOT": 0}, "tle": {"line1": "1 33775U 97051N   25337.69802095  .00001716  00000+0  52281-3 0  9991", "line2": "2 33775  86.3643  53.4129 0013254 183.3567 299.1013 14.41435390880105"}}, "geometry": {"type": "Point", "coordinates": [-141.60570709048875, 75.98154841459484]}}, {"type": "Feature", "properties": {"norad_id": 33776, "name": "IRIDIUM 33 DEB", "group": "iridium-33-debris", "lat": 70.75150691840689, "lon": 94.68748208718124, "alt_km": 765.8312418350033, "timestamp": "2025-12-04T07:39:36.516884+00:00", "meta": {"OBJECT_NAME": "IRIDIUM 33 DEB", "OBJECT_ID": "1997-051P", "EPOCH": "2025-12-03T16:53:07.730016", "MEAN_MOTION": 14.3820574, "ECCENTRICITY": 0.0013389, "INCLINATION": 86.4038, "RA_OF_ASC_NODE": 84.5703, "ARG_OF_PERICENTER": 221.6602, "MEAN_ANOMALY": 264.2027, "EPHEMERIS_TYPE": 0, "CLASSIFICATION_TYPE": "U", "NORAD_CAT_ID": 33776, "ELEMENT_SET_NO": 999, "REV_AT_EPOCH": 87952, "BSTAR": 0.00046610589, "MEAN_MOTION_DOT": 1.435e-05, "MEAN_MOTION_DDOT": 0}, "tle": {"line1": "1 33776U 97051P   25337.70356169  .00001435  00000+0  46611-3 0  9998", "line2": "2 33776  86.4038  84.5703 0013389 221.6602 264.2027 14.38205740879525"}}, "geometry": {"type": "Point", "coordinates": [94.68748208718124, 70.75150691840689]}}, {"type": "Feature", "properties": {"norad_id": 33777, "name": "IRIDIUM 33 DEB", "group": "iridium-33-debris", "lat": 53.752081100678744, "lon": 43.81967957479055, "alt_km": 704.8182724619901, "timestamp": "2025-12-04T07:39:36.516903+00:00", "meta": {"OBJECT_NAME": "IRIDIUM 33 DEB", "OBJECT_ID": "1997-051Q", "EPOCH": "2025-12-03T16:33:48.520224", "MEAN_MOTION": 14.55497721, "ECCENTRICITY": 0.00051456, "INCLINATION": 86.38, "RA_OF_ASC_NODE": 39.1396, "ARG_OF_PERICENTER": 291.5798, "MEAN_ANOMALY": 68.4861, "EPHEMERIS_TYPE": 0, "CLASSIFICATION_TYPE": "U", "NORAD_CAT_ID": 33777, "ELEMENT_SET_NO": 999, "REV_AT_EPOCH": 88402, "BSTAR": 0.0014601621, "MEAN_MOTION_DOT": 6.375e-05, "MEAN_MOTION_DDOT": 0}, "tle": {"line1": "1 33777U 97051Q   25337.69014491  .00006375  00000+0  14602-2 0  9998", "line2": "2 33777  86.3800  39.1396 0005145 291.5798  68.4861 14.55497721884021"}}, "geometry": {"type": "Point", "coordinates": [43.81967957479055, 53.752081100678744]}}, {"type": "Feature", "properties": {"norad_id": 33850, "name": "IRIDIUM 33 DEB", "group": "iridium-33-debris", "lat": 63.64384244126661, "lon": 41.21787109992009, "alt_km": 749.8174195773508, "timestamp": "2025-12-04T07:39:36.516914+00:00", "meta": {"OBJECT_NAME": "IRIDIUM 33 DEB", "OBJECT_ID": "1997-051T", "EPOCH": "2025-12-03T22:10:26.250816", "MEAN_MOTION": 14.42117824, "ECCENTRICITY": 0.00112726, "INCLINATION": 86.3424, "RA_OF_ASC_NODE": 33.9698, "ARG_OF_PERICENTER": 188.7518, "MEAN_ANOMALY": 344.5598, "EPHEMERIS_TYPE": 0, "CLASSIFICATION_TYPE": "U", "NORAD_CAT_ID": 33850, "ELEMENT_SET_NO": 999, "REV_AT_EPOCH": 88025, "BSTAR": 0.00074765401, "MEAN_MOTION_DOT": 2.478e-05, "MEAN_MOTION_DDOT": 0}, "tle": {"line1": "1 33850U 97051T   25337.92391494  .00002478  00000+0  74765-3 0  9994", "line2": "2 33850  86.3424  33.9698 0011272 188.7518 344.5598 14.42117824880252"}}, "geometry": {"type": "Point", "coordinates": [41.21787109992009, 63.64384244126661]}}, {"type": "Feature", "properties": {"norad_id": 33853, "name": "IRIDIUM 33 DEB", "group": "iridium-33-debris", "lat": -46.123032719167185, "lon": -10.667782728243376, "alt_km": 809.520945814078, "timestamp": "2025-12-04T07:39:36.516926+00:00", "meta": {"OBJECT_NAME": "IRIDIUM 33 DEB", "OBJECT_ID": "1997-051W", "EPOCH": "2025-12-03T12:03:16.669728", "MEAN_MOTION": 13.98961391, "ECCENTRICITY": 0.02068073, "INCLINATION": 86.0004, "RA_OF_ASC_NODE": 353.8627, "ARG_OF_PERICENTER": 264.3782, "MEAN_ANOMALY": 255.9822, "EPHEMERIS_TYPE": 0, "CLASSIFICATION_TYPE": "U", "NORAD_CAT_ID": 33853, "ELEMENT_SET_NO": 999, "REV_AT_EPOCH": 85216, "BSTAR": 0.0030737187, "MEAN_MOTION_DOT": 5.345e-05, "MEAN_MOTION_DDOT": 0}, "tle": {"line1": "1 33853U 97051W   25337.50227627  .00005345  00000+0  30737-2 0  9993", "line2": "2 33853  86.0004 353.8627 0206807 264.3782 255.9822 13.98961391852166"}}, "geometry": {"type": "Point", "coordinates": [-10.667782728243376, -46.123032719167185]}}, {"type": "Feature", "properties": {"norad_id": 33860, "name": "IRIDIUM 33 DEB", "group": "iridium-33-debris", "lat": -43.47040312439435, "lon": 27.52922203004678, "alt_km": 674.6629979502841, "timestamp": "2025-12-04T07:39:36.516936+00:00", "meta": {"OBJECT_NAME": "IRIDIUM 33 DEB", "OBJECT_ID": "1997-051AD", "EPOCH": "2025-12-03T10:38:45.202272", "MEAN_MOTION": 14.67161247, "ECCENTRICITY": 0.0008596, "INCLINATION": 86.385, "RA_OF_ASC_NODE": 31.3522, "ARG_OF_PERICENTER": 28.3403, "MEAN_ANOMALY": 346.5569, "EPHEMERIS_TYPE": 0, "CLASSIFICATION_TYPE": "U", "NORAD_CAT_ID": 33860, "ELEMENT_SET_NO": 999, "REV_AT_EPOCH": 88586, "BSTAR": 0.0017679929, "MEAN_MOTION_DOT": 9.972e-05, "MEAN_MOTION_DDOT": 0}, "tle": {"line1": "1 33860U 97051AD  25337.44357873  .00009972  00000+0  17680-2 0  9993", "line2": "2 33860  86.3850  31.3522 0008596  28.3403 346.5569 14.67161247885868"}}, "geometry": {"type": "Point", "coordinates": [27.52922203004678, -43.47040312439435]}}, {"type": "Feature", "properties": {"norad_id": 33862, "name": "IRIDIUM 33 DEB", "group": "iridium-33-debris", "lat": -71.09238800634442, "lon": 30.68172596436911, "alt_km": 708.2096879979372, "timestamp": "2025-12-04T07:39:36.516946+00:00", "meta": {"OBJECT_NAME": "IRIDIUM 33 DEB", "OBJECT_ID": "1997-051AF", "EPOCH": "2025-12-03T16:12:45.413568", "MEAN_MOTION": 14.69222716, "ECCENTRICITY": 0.00540747, "INCLINATION": 86.4101, "RA_OF_ASC_NODE": 41.5264, "ARG_OF_PERICENTER": 99.4466, "MEAN_ANOMALY": 27.1192, "EPHEMERIS_TYPE": 0, "CLASSIFICATION_TYPE": "U", "NORAD_CAT_ID": 33862, "ELEMENT_SET_NO": 999, "REV_AT_EPOCH": 88690, "BSTAR": 0.0020462598, "MEAN_MOTION_DOT": 0.0001236, "MEAN_MOTION_DDOT": 0}, "tle": {"line1": "1 33862U 97051AF  25337.67552562  .00012360  00000+0  20463-2 0  9990", "line2": "2 33862  86.4101  41.5264 0054074  99.4466  27.1192 14.69222716886907"}}, "geometry": {"type": "Point", "coordinates": [30.68172596436911, -71.09238800634442]}}, {"type": "Feature", "properties": {"norad_id": 33866, "name": "IRIDIUM 33 DEB", "group": "iridium-33-debris", "lat": -70.25516028778641, "lon": -73.01556662654345, "alt_km": 776.4229248768352, "timestamp": "2025-12-04T07:39:36.516957+00:00", "meta": {"OBJECT_NAME": "IRIDIUM 33 DEB", "OBJECT_ID": "1997-051AK", "EPOCH": "2025-12-03T08:50:48.901920", "MEAN_MOTION": 14.25219287, "ECCENTRICITY": 0.0113711, "INCLINATION": 86.2997, "RA_OF_ASC_NODE": 96.9997, "ARG_OF_PERICENTER": 191.2792, "MEAN_ANOMALY": 224.088, "EPHEMERIS_TYPE": 0, "CLASSIFICATION_TYPE": "U", "NORAD_CAT_ID": 33866, "ELEMENT_SET_NO": 999, "REV_AT_EPOCH": 86677, "BSTAR": 0.001023, "MEAN_MOTION_DOT": 2.59e-05, "MEAN_MOTION_DDOT": 0}, "tle": {"line1": "1 33866U 97051AK  25337.36862155  .00002590  00000+0  10230-2 0  9997", "line2": "2 33866  86.2997  96.9997 0113711 191.2792 224.0880 14.25219287866772"}}, "geometry": {"type": "Point", "coordinates": [-73.01556662654345, -70.25516028778641]}}]}